[{"OBJECT_NAME":"STARLINK-5366","OBJECT_ID":"2023-015BC","EPOCH":"2026-03-09T22:00:01.999584","MEAN_MOTION":15.10656618,"ECCENTRICITY":0.0001153,"INCLINATION":43,"RA_OF_ASC_NODE":337.0237,"ARG_OF_PERICENTER":313.1133,"MEAN_ANOMALY":150.3814,"EPHEMERIS_TYPE":0,"CLASSIFICATION_TYPE":"U","NORAD_CAT_ID":55499,"ELEMENT_SET_NO":999,"REV_AT_EPOCH":573,"BSTAR":0.0027116934,"MEAN_MOTION_DOT":0.00045719,"MEAN_MOTION_DDOT":0},{"OBJECT_NAME":"OBJECT A","OBJECT_ID":"2024-205A","EPOCH":"2026-03-09T23:47:25.060128","MEAN_MOTION":15.10420635,"ECCENTRICITY":0.00183963,"INCLINATION":97.4208,"RA_OF_ASC_NODE":142.0688,"ARG_OF_PERICENTER":137.3438,"MEAN_ANOMALY":222.9224,"EPHEMERIS_TYPE":0,"CLASSIFICATION_TYPE":"U","NORAD_CAT_ID":61894,"ELEMENT_SET_NO":999,"REV_AT_EPOCH":7322,"BSTAR":0.00061451018,"MEAN_MOTION_DOT":0.00010084,"MEAN_MOTION_DDOT":0}]
